CCSDS_OMM_VERS = 2.0
CREATION_DATE  = 
ORIGINATOR     = 

OBJECT_NAME    = TWILIGHT K
OBJECT_ID      = 2026-004K
CENTER_NAME    = EARTH
REF_FRAME      = TEME
TIME_SYSTEM    = UTC
MEAN_ELEMENT_THEORY = SGP/SGP4

EPOCH          = 2026-01-27T19:41:47.643648
MEAN_MOTION    = 14.87946544
ECCENTRICITY   = .0003106
INCLINATION    = 97.7971
RA_OF_ASC_NODE = 28.7179
ARG_OF_PERICENTER = 216.0521
MEAN_ANOMALY   = 144.0487

EPHEMERIS_TYPE = 0
CLASSIFICATION_TYPE = U
NORAD_CAT_ID   = 67372
ELEMENT_SET_NO = 999
REV_AT_EPOCH   = 242
BSTAR          = .45044E-3
MEAN_MOTION_DOT = .4075E-4
MEAN_MOTION_DDOT = 0

CCSDS_OMM_VERS = 2.0
CREATION_DATE  = 
ORIGINATOR     = 

OBJECT_NAME    = TWILIGHT L
OBJECT_ID      = 2026-004L
CENTER_NAME    = EARTH
REF_FRAME      = TEME
TIME_SYSTEM    = UTC
MEAN_ELEMENT_THEORY = SGP/SGP4

EPOCH          = 2026-01-27T19:47:56.885280
MEAN_MOTION    = 14.87552516
ECCENTRICITY   = .0004702
INCLINATION    = 97.7984
RA_OF_ASC_NODE = 28.7140
ARG_OF_PERICENTER = 229.7975
MEAN_ANOMALY   = 130.2830

EPHEMERIS_TYPE = 0
CLASSIFICATION_TYPE = U
NORAD_CAT_ID   = 67373
ELEMENT_SET_NO = 999
REV_AT_EPOCH   = 242
BSTAR          = .43451E-3
MEAN_MOTION_DOT = .3891E-4
MEAN_MOTION_DDOT = 0

CCSDS_OMM_VERS = 2.0
CREATION_DATE  = 
ORIGINATOR     = 

OBJECT_NAME    = TWILIGHT M
OBJECT_ID      = 2026-004M
CENTER_NAME    = EARTH
REF_FRAME      = TEME
TIME_SYSTEM    = UTC
MEAN_ELEMENT_THEORY = SGP/SGP4

EPOCH          = 2026-01-27T18:06:03.422592
MEAN_MOTION    = 14.87898658
ECCENTRICITY   = .0003371
INCLINATION    = 97.7970
RA_OF_ASC_NODE = 28.6496
ARG_OF_PERICENTER = 217.4360
MEAN_ANOMALY   = 142.6622

EPHEMERIS_TYPE = 0
CLASSIFICATION_TYPE = U
NORAD_CAT_ID   = 67374
ELEMENT_SET_NO = 999
REV_AT_EPOCH   = 241
BSTAR          = .51561E-3
MEAN_MOTION_DOT = .4668E-4
MEAN_MOTION_DDOT = 0

CCSDS_OMM_VERS = 2.0
CREATION_DATE  = 
ORIGINATOR     = 

OBJECT_NAME    = TWILIGHT N
OBJECT_ID      = 2026-004N
CENTER_NAME    = EARTH
REF_FRAME      = TEME
TIME_SYSTEM    = UTC
MEAN_ELEMENT_THEORY = SGP/SGP4

EPOCH          = 2026-01-27T18:05:38.329440
MEAN_MOTION    = 14.87925653
ECCENTRICITY   = .0003955
INCLINATION    = 97.8007
RA_OF_ASC_NODE = 28.6558
ARG_OF_PERICENTER = 211.8006
MEAN_ANOMALY   = 148.2972

EPHEMERIS_TYPE = 0
CLASSIFICATION_TYPE = U
NORAD_CAT_ID   = 67375
ELEMENT_SET_NO = 999
REV_AT_EPOCH   = 241
BSTAR          = .52669E-3
MEAN_MOTION_DOT = .4773E-4
MEAN_MOTION_DDOT = 0

CCSDS_OMM_VERS = 2.0
CREATION_DATE  = 
ORIGINATOR     = 

OBJECT_NAME    = TWILIGHT P
OBJECT_ID      = 2026-004P
CENTER_NAME    = EARTH
REF_FRAME      = TEME
TIME_SYSTEM    = UTC
MEAN_ELEMENT_THEORY = SGP/SGP4

EPOCH          = 2026-01-27T18:07:54.462144
MEAN_MOTION    = 14.87777634
ECCENTRICITY   = .0004297
INCLINATION    = 97.8003
RA_OF_ASC_NODE = 28.6529
ARG_OF_PERICENTER = 218.7259
MEAN_ANOMALY   = 141.3649

EPHEMERIS_TYPE = 0
CLASSIFICATION_TYPE = U
NORAD_CAT_ID   = 67376
ELEMENT_SET_NO = 999
REV_AT_EPOCH   = 241
BSTAR          = .51906E-3
MEAN_MOTION_DOT = .4685E-4
MEAN_MOTION_DDOT = 0

CCSDS_OMM_VERS = 2.0
CREATION_DATE  = 
ORIGINATOR     = 

OBJECT_NAME    = TWILIGHT Q
OBJECT_ID      = 2026-004Q
CENTER_NAME    = EARTH
REF_FRAME      = TEME
TIME_SYSTEM    = UTC
MEAN_ELEMENT_THEORY = SGP/SGP4

EPOCH          = 2026-01-27T19:42:15.649344
MEAN_MOTION    = 14.87945756
ECCENTRICITY   = .0003939
INCLINATION    = 97.8006
RA_OF_ASC_NODE = 28.7218
ARG_OF_PERICENTER = 210.0828
MEAN_ANOMALY   = 150.0162

EPHEMERIS_TYPE = 0
CLASSIFICATION_TYPE = U
NORAD_CAT_ID   = 67377
ELEMENT_SET_NO = 999
REV_AT_EPOCH   = 241
BSTAR          = .64182E-3
MEAN_MOTION_DOT = .5832E-4
MEAN_MOTION_DDOT = 0

CCSDS_OMM_VERS = 2.0
CREATION_DATE  = 
ORIGINATOR     = 

OBJECT_NAME    = TWILIGHT R
OBJECT_ID      = 2026-004R
CENTER_NAME    = EARTH
REF_FRAME      = TEME
TIME_SYSTEM    = UTC
MEAN_ELEMENT_THEORY = SGP/SGP4

EPOCH          = 2026-01-27T18:09:04.661280
MEAN_MOTION    = 14.87701354
ECCENTRICITY   = .000371
INCLINATION    = 97.7977
RA_OF_ASC_NODE = 28.6480
ARG_OF_PERICENTER = 229.2922
MEAN_ANOMALY   = 130.7972

EPHEMERIS_TYPE = 0
CLASSIFICATION_TYPE = U
NORAD_CAT_ID   = 67378
ELEMENT_SET_NO = 999
REV_AT_EPOCH   = 240
BSTAR          = .55323E-3
MEAN_MOTION_DOT = .4988E-4
MEAN_MOTION_DDOT = 0

CCSDS_OMM_VERS = 2.0
CREATION_DATE  = 
ORIGINATOR     = 

OBJECT_NAME    = TWILIGHT S
OBJECT_ID      = 2026-004S
CENTER_NAME    = EARTH
REF_FRAME      = TEME
TIME_SYSTEM    = UTC
MEAN_ELEMENT_THEORY = SGP/SGP4

EPOCH          = 2026-01-27T18:08:53.356704
MEAN_MOTION    = 14.87711761
ECCENTRICITY   = .0004223
INCLINATION    = 97.7982
RA_OF_ASC_NODE = 28.6497
ARG_OF_PERICENTER = 225.1590
MEAN_ANOMALY   = 134.9284

EPHEMERIS_TYPE = 0
CLASSIFICATION_TYPE = U
NORAD_CAT_ID   = 67379
ELEMENT_SET_NO = 999
REV_AT_EPOCH   = 240
BSTAR          = .52929E-3
MEAN_MOTION_DOT = .4771E-4
MEAN_MOTION_DDOT = 0

CCSDS_OMM_VERS = 2.0
CREATION_DATE  = 
ORIGINATOR     = 

OBJECT_NAME    = TWILIGHT T
OBJECT_ID      = 2026-004T
CENTER_NAME    = EARTH
REF_FRAME      = TEME
TIME_SYSTEM    = UTC
MEAN_ELEMENT_THEORY = SGP/SGP4

EPOCH          = 2026-01-27T18:07:30.733248
MEAN_MOTION    = 14.87808430
ECCENTRICITY   = .0003723
INCLINATION    = 97.7974
RA_OF_ASC_NODE = 28.6498
ARG_OF_PERICENTER = 224.0936
MEAN_ANOMALY   = 135.9984

EPHEMERIS_TYPE = 0
CLASSIFICATION_TYPE = U
NORAD_CAT_ID   = 67380
ELEMENT_SET_NO = 999
REV_AT_EPOCH   = 240
BSTAR          = .50559E-3
MEAN_MOTION_DOT = .4566E-4
MEAN_MOTION_DDOT = 0

CCSDS_OMM_VERS = 2.0
CREATION_DATE  = 
ORIGINATOR     = 

OBJECT_NAME    = TWILIGHT U
OBJECT_ID      = 2026-004U
CENTER_NAME    = EARTH
REF_FRAME      = TEME
TIME_SYSTEM    = UTC
MEAN_ELEMENT_THEORY = SGP/SGP4

EPOCH          = 2026-01-27T14:51:42.501024
MEAN_MOTION    = 14.87946098
ECCENTRICITY   = .00040621
INCLINATION    = 97.8011
RA_OF_ASC_NODE = 28.5254
ARG_OF_PERICENTER = 212.4172
MEAN_ANOMALY   = 147.6795

EPHEMERIS_TYPE = 0
CLASSIFICATION_TYPE = U
NORAD_CAT_ID   = 67381
ELEMENT_SET_NO = 999
REV_AT_EPOCH   = 238
BSTAR          = .63103621E-3
MEAN_MOTION_DOT = .5733E-4
MEAN_MOTION_DDOT = 0

CCSDS_OMM_VERS = 2.0
CREATION_DATE  = 
ORIGINATOR     = 

OBJECT_NAME    = TWILIGHT V
OBJECT_ID      = 2026-004V
CENTER_NAME    = EARTH
REF_FRAME      = TEME
TIME_SYSTEM    = UTC
MEAN_ELEMENT_THEORY = SGP/SGP4

EPOCH          = 2026-01-27T19:41:13.556256
MEAN_MOTION    = 14.88004166
ECCENTRICITY   = .0003683
INCLINATION    = 97.8002
RA_OF_ASC_NODE = 28.7220
ARG_OF_PERICENTER = 206.5168
MEAN_ANOMALY   = 153.5861

EPHEMERIS_TYPE = 0
CLASSIFICATION_TYPE = U
NORAD_CAT_ID   = 67382
ELEMENT_SET_NO = 999
REV_AT_EPOCH   = 241
BSTAR          = .53316E-3
MEAN_MOTION_DOT = .4841E-4
MEAN_MOTION_DDOT = 0

CCSDS_OMM_VERS = 2.0
CREATION_DATE  = 
ORIGINATOR     = 

OBJECT_NAME    = TWILIGHT W
OBJECT_ID      = 2026-004W
CENTER_NAME    = EARTH
REF_FRAME      = TEME
TIME_SYSTEM    = UTC
MEAN_ELEMENT_THEORY = SGP/SGP4

EPOCH          = 2026-01-27T16:31:49.897344
MEAN_MOTION    = 14.87726699
ECCENTRICITY   = .0004035
INCLINATION    = 97.7978
RA_OF_ASC_NODE = 28.5833
ARG_OF_PERICENTER = 226.6329
MEAN_ANOMALY   = 133.4552

EPHEMERIS_TYPE = 0
CLASSIFICATION_TYPE = U
NORAD_CAT_ID   = 67383
ELEMENT_SET_NO = 999
REV_AT_EPOCH   = 239
BSTAR          = .51424E-3
MEAN_MOTION_DOT = .4636E-4
MEAN_MOTION_DDOT = 0

