TWILIGHT K              
1 67372U 26004K   26027.82069032  .00004075  00000+0  45044-3 0  9999
2 67372  97.7971  28.7179 0003106 216.0521 144.0487 14.87946544  2426
TWILIGHT L              
1 67373U 26004L   26027.82496395  .00003891  00000+0  43451-3 0  9991
2 67373  97.7984  28.7140 0004702 229.7975 130.2830 14.87552516  2427
TWILIGHT M              
1 67374U 26004M   26027.75420628  .00004668  00000+0  51561-3 0  9994
2 67374  97.7970  28.6496 0003371 217.4360 142.6622 14.87898658  2414
TWILIGHT N              
1 67375U 26004N   26027.75391585  .00004773  00000+0  52669-3 0  9991
2 67375  97.8007  28.6558 0003955 211.8006 148.2972 14.87925653  2415
TWILIGHT P              
1 67376U 26004P   26027.75549146  .00004685  00000+0  51906-3 0  9995
2 67376  97.8003  28.6529 0004297 218.7259 141.3649 14.87777634  2415
TWILIGHT Q              
1 67377U 26004Q   26027.82101446  .00005832  00000+0  64182-3 0  9996
2 67377  97.8006  28.7218 0003939 210.0828 150.0162 14.87945756  2413
TWILIGHT R              
1 67378U 26004R   26027.75630395  .00004988  00000+0  55323-3 0  9997
2 67378  97.7977  28.6480 0003710 229.2922 130.7972 14.87701354  2401
TWILIGHT S              
1 67379U 26004S   26027.75617311  .00004771  00000+0  52929-3 0  9990
2 67379  97.7982  28.6497 0004223 225.1590 134.9284 14.87711761  2407
TWILIGHT T              
1 67380U 26004T   26027.75521682  .00004566  00000+0  50559-3 0  9996
2 67380  97.7974  28.6498 0003723 224.0936 135.9984 14.87808430  2405
TWILIGHT U              
1 67381U 26004U   26027.61924191  .00005733  00000+0  63104-3 0  9991
2 67381  97.8011  28.5254 0004062 212.4172 147.6795 14.87946098  2388
TWILIGHT V              
1 67382U 26004V   26027.82029579  .00004841  00000+0  53316-3 0  9994
2 67382  97.8002  28.7220 0003683 206.5168 153.5861 14.88004166  2417
TWILIGHT W              
1 67383U 26004W   26027.68877196  .00004636  00000+0  51424-3 0  9995
2 67383  97.7978  28.5833 0004035 226.6329 133.4552 14.87726699  2393
